[
  {
    "OBJECT_NAME": "STARLINK-1266",
    "OBJECT_ID": "20019Z",
    "EPOCH": "2025-11-11T06:05:11.560128",
    "MEAN_MOTION": 15.06396881,
    "ECCENTRICITY": 0.0001732,
    "INCLINATION": 53.0559,
    "RA_OF_ASC_NODE": 318.3027,
    "ARG_OF_PERICENTER": 93.2659,
    "MEAN_ANOMALY": 266.8529,
    "EPHEMERIS_TYPE": 0,
    "CLASSIFICATION_TYPE": "U",
    "NORAD_CAT_ID": 45383,
    "ELEMENT_SET_NO": 999,
    "REV_AT_EPOCH": 31215,
    "BSTAR": 0.00010961,
    "MEAN_MOTION_DOT": 1.351e-05,
    "MEAN_MOTION_DDOT": 0.0,
    "TLE_LINE1": "1 45383U 20019Z   25315.25360602  .00001351  00000+0  10961-3 0  9994",
    "TLE_LINE2": "2 45383  53.0559 318.3027 0001732  93.2659 266.8529 15.06396881312150",
    "COMMENT": "Grouped by shell and plane from TLE"
  },
  {
    "OBJECT_NAME": "STARLINK-1267",
    "OBJECT_ID": "20019AA",
    "EPOCH": "2025-11-11T05:44:05.922816",
    "MEAN_MOTION": 15.06405079,
    "ECCENTRICITY": 0.0001578,
    "INCLINATION": 53.0558,
    "RA_OF_ASC_NODE": 319.027,
    "ARG_OF_PERICENTER": 85.8832,
    "MEAN_ANOMALY": 274.2337,
    "EPHEMERIS_TYPE": 0,
    "CLASSIFICATION_TYPE": "U",
    "NORAD_CAT_ID": 45384,
    "ELEMENT_SET_NO": 999,
    "REV_AT_EPOCH": 31214,
    "BSTAR": 0.00063781,
    "MEAN_MOTION_DOT": 9.233e-05,
    "MEAN_MOTION_DDOT": 0.0,
    "TLE_LINE1": "1 45384U 20019AA  25315.23895744  .00009233  00000+0  63781-3 0  9998",
    "TLE_LINE2": "2 45384  53.0558 319.0270 0001578  85.8832 274.2337 15.06405079312145",
    "COMMENT": "Grouped by shell and plane from TLE"
  },
  {
    "OBJECT_NAME": "STARLINK-1284",
    "OBJECT_ID": "20019AG",
    "EPOCH": "2025-11-11T06:10:29.807616",
    "MEAN_MOTION": 15.06393005,
    "ECCENTRICITY": 0.0001232,
    "INCLINATION": 53.0545,
    "RA_OF_ASC_NODE": 318.2846,
    "ARG_OF_PERICENTER": 93.174,
    "MEAN_ANOMALY": 266.939,
    "EPHEMERIS_TYPE": 0,
    "CLASSIFICATION_TYPE": "U",
    "NORAD_CAT_ID": 45390,
    "ELEMENT_SET_NO": 999,
    "REV_AT_EPOCH": 31215,
    "BSTAR": 5.0644000000000005e-05,
    "MEAN_MOTION_DOT": 4.73e-06,
    "MEAN_MOTION_DDOT": 0.0,
    "TLE_LINE1": "1 45390U 20019AG  25315.25728944  .00000473  00000+0  50644-4 0  9996",
    "TLE_LINE2": "2 45390  53.0545 318.2846 0001232  93.1740 266.9390 15.06393005312158",
    "COMMENT": "Grouped by shell and plane from TLE"
  },
  {
    "OBJECT_NAME": "STARLINK-1297",
    "OBJECT_ID": "20019AM",
    "EPOCH": "2025-11-11T07:03:33.836832",
    "MEAN_MOTION": 15.06378231,
    "ECCENTRICITY": 0.0001523,
    "INCLINATION": 53.0553,
    "RA_OF_ASC_NODE": 318.1163,
    "ARG_OF_PERICENTER": 74.7778,
    "MEAN_ANOMALY": 285.3379,
    "EPHEMERIS_TYPE": 0,
    "CLASSIFICATION_TYPE": "U",
    "NORAD_CAT_ID": 45395,
    "ELEMENT_SET_NO": 999,
    "REV_AT_EPOCH": 31134,
    "BSTAR": 0.0,
    "MEAN_MOTION_DOT": -8.269e-05,
    "MEAN_MOTION_DDOT": 0.0,
    "TLE_LINE1": "1 45395U 20019AM  25315.29414163 -.00008269  00000+0 -53717-3 0  9996",
    "TLE_LINE2": "2 45395  53.0553 318.1163 0001523  74.7778 285.3379 15.06378231311348",
    "COMMENT": "Grouped by shell and plane from TLE"
  },
  {
    "OBJECT_NAME": "STARLINK-1307",
    "OBJECT_ID": "20019AP",
    "EPOCH": "2025-11-11T06:52:58.010592",
    "MEAN_MOTION": 15.0640456,
    "ECCENTRICITY": 0.0001832,
    "INCLINATION": 53.0557,
    "RA_OF_ASC_NODE": 318.1497,
    "ARG_OF_PERICENTER": 87.1916,
    "MEAN_ANOMALY": 272.9282,
    "EPHEMERIS_TYPE": 0,
    "CLASSIFICATION_TYPE": "U",
    "NORAD_CAT_ID": 45397,
    "ELEMENT_SET_NO": 999,
    "REV_AT_EPOCH": 31198,
    "BSTAR": 0.0,
    "MEAN_MOTION_DOT": -1.038e-05,
    "MEAN_MOTION_DDOT": 0.0,
    "TLE_LINE1": "1 45397U 20019AP  25315.28678253 -.00001038  00000+0 -50780-4 0  9994",
    "TLE_LINE2": "2 45397  53.0557 318.1497 0001832  87.1916 272.9282 15.06404560311989",
    "COMMENT": "Grouped by shell and plane from TLE"
  },
  {
    "OBJECT_NAME": "STARLINK-1664",
    "OBJECT_ID": "20070X",
    "EPOCH": "2025-11-11T06:31:41.567232",
    "MEAN_MOTION": 15.06441186,
    "ECCENTRICITY": 0.0001311,
    "INCLINATION": 53.0542,
    "RA_OF_ASC_NODE": 318.225,
    "ARG_OF_PERICENTER": 74.1823,
    "MEAN_ANOMALY": 285.931,
    "EPHEMERIS_TYPE": 0,
    "CLASSIFICATION_TYPE": "U",
    "NORAD_CAT_ID": 46553,
    "ELEMENT_SET_NO": 999,
    "REV_AT_EPOCH": 28207,
    "BSTAR": 0.0008866500000000001,
    "MEAN_MOTION_DOT": 0.00012964,
    "MEAN_MOTION_DDOT": 0.0,
    "TLE_LINE1": "1 46553U 20070X   25315.27200888  .00012964  00000+0  88665-3 0  9990",
    "TLE_LINE2": "2 46553  53.0542 318.2250 0001311  74.1823 285.9310 15.06441186282079",
    "COMMENT": "Grouped by shell and plane from TLE"
  },
  {
    "OBJECT_NAME": "STARLINK-2680",
    "OBJECT_ID": "21040E",
    "EPOCH": "2025-11-11T06:58:20.505504",
    "MEAN_MOTION": 15.06394072,
    "ECCENTRICITY": 0.000153,
    "INCLINATION": 53.0543,
    "RA_OF_ASC_NODE": 318.5266,
    "ARG_OF_PERICENTER": 96.8642,
    "MEAN_ANOMALY": 263.2521,
    "EPHEMERIS_TYPE": 0,
    "CLASSIFICATION_TYPE": "U",
    "NORAD_CAT_ID": 48432,
    "ELEMENT_SET_NO": 999,
    "REV_AT_EPOCH": 24926,
    "BSTAR": 0.00010503,
    "MEAN_MOTION_DOT": 1.283e-05,
    "MEAN_MOTION_DDOT": 0.0,
    "TLE_LINE1": "1 48432U 21040E   25315.29051511  .00001283  00000+0  10503-3 0  9993",
    "TLE_LINE2": "2 48432  53.0543 318.5266 0001530  96.8642 263.2521 15.06394072249269",
    "COMMENT": "Grouped by shell and plane from TLE"
  },
  {
    "OBJECT_NAME": "STARLINK-2145",
    "OBJECT_ID": "21041C",
    "EPOCH": "2025-11-11T06:50:58.301664",
    "MEAN_MOTION": 15.06397336,
    "ECCENTRICITY": 0.0001639,
    "INCLINATION": 53.0558,
    "RA_OF_ASC_NODE": 313.1564,
    "ARG_OF_PERICENTER": 92.5581,
    "MEAN_ANOMALY": 267.5596,
    "EPHEMERIS_TYPE": 0,
    "CLASSIFICATION_TYPE": "U",
    "NORAD_CAT_ID": 48555,
    "ELEMENT_SET_NO": 999,
    "REV_AT_EPOCH": 24721,
    "BSTAR": 0.00024092,
    "MEAN_MOTION_DOT": 3.309e-05,
    "MEAN_MOTION_DDOT": 0.0,
    "TLE_LINE1": "1 48555U 21041C   25315.28539701  .00003309  00000+0  24092-3 0  9990",
    "TLE_LINE2": "2 48555  53.0558 313.1564 0001639  92.5581 267.5596 15.06397336247216",
    "COMMENT": "Grouped by shell and plane from TLE"
  },
  {
    "OBJECT_NAME": "STARLINK-2151",
    "OBJECT_ID": "21041D",
    "EPOCH": "2025-11-11T06:35:02.813568",
    "MEAN_MOTION": 15.06395052,
    "ECCENTRICITY": 0.0001491,
    "INCLINATION": 53.0562,
    "RA_OF_ASC_NODE": 313.2051,
    "ARG_OF_PERICENTER": 96.5894,
    "MEAN_ANOMALY": 263.5264,
    "EPHEMERIS_TYPE": 0,
    "CLASSIFICATION_TYPE": "U",
    "NORAD_CAT_ID": 48556,
    "ELEMENT_SET_NO": 999,
    "REV_AT_EPOCH": 24721,
    "BSTAR": 6.7397e-05,
    "MEAN_MOTION_DOT": 7.22e-06,
    "MEAN_MOTION_DDOT": 0.0,
    "TLE_LINE1": "1 48556U 21041D   25315.27433812  .00000722  00000+0  67397-4 0  9998",
    "TLE_LINE2": "2 48556  53.0562 313.2051 0001491  96.5894 263.5264 15.06395052247212",
    "COMMENT": "Grouped by shell and plane from TLE"
  },
  {
    "OBJECT_NAME": "STARLINK-2214",
    "OBJECT_ID": "21041P",
    "EPOCH": "2025-11-11T06:45:38.442816",
    "MEAN_MOTION": 15.06411934,
    "ECCENTRICITY": 0.0001272,
    "INCLINATION": 53.0564,
    "RA_OF_ASC_NODE": 313.1438,
    "ARG_OF_PERICENTER": 46.6504,
    "MEAN_ANOMALY": 313.4591,
    "EPHEMERIS_TYPE": 0,
    "CLASSIFICATION_TYPE": "U",
    "NORAD_CAT_ID": 48566,
    "ELEMENT_SET_NO": 999,
    "REV_AT_EPOCH": 24721,
    "BSTAR": 0.00029083,
    "MEAN_MOTION_DOT": 4.055e-05,
    "MEAN_MOTION_DDOT": 0.0,
    "TLE_LINE1": "1 48566U 21041P   25315.28169494  .00004055  00000+0  29083-3 0  9994",
    "TLE_LINE2": "2 48566  53.0564 313.1438 0001272  46.6504 313.4591 15.06411934247210",
    "COMMENT": "Grouped by shell and plane from TLE"
  },
  {
    "OBJECT_NAME": "STARLINK-2220",
    "OBJECT_ID": "21041T",
    "EPOCH": "2025-11-11T06:08:31.793856",
    "MEAN_MOTION": 15.06411044,
    "ECCENTRICITY": 0.0001452,
    "INCLINATION": 53.0537,
    "RA_OF_ASC_NODE": 313.2877,
    "ARG_OF_PERICENTER": 90.0034,
    "MEAN_ANOMALY": 270.1121,
    "EPHEMERIS_TYPE": 0,
    "CLASSIFICATION_TYPE": "U",
    "NORAD_CAT_ID": 48570,
    "ELEMENT_SET_NO": 999,
    "REV_AT_EPOCH": 24720,
    "BSTAR": 0.00076012,
    "MEAN_MOTION_DOT": 0.00011062,
    "MEAN_MOTION_DDOT": 0.0,
    "TLE_LINE1": "1 48570U 21041T   25315.25592354  .00011062  00000+0  76012-3 0  9991",
    "TLE_LINE2": "2 48570  53.0537 313.2877 0001452  90.0034 270.1121 15.06411044247203",
    "COMMENT": "Grouped by shell and plane from TLE"
  },
  {
    "OBJECT_NAME": "STARLINK-2221",
    "OBJECT_ID": "21041U",
    "EPOCH": "2025-11-11T06:19:06.994560",
    "MEAN_MOTION": 15.06395865,
    "ECCENTRICITY": 0.0001368,
    "INCLINATION": 53.0546,
    "RA_OF_ASC_NODE": 313.2553,
    "ARG_OF_PERICENTER": 86.2325,
    "MEAN_ANOMALY": 273.882,
    "EPHEMERIS_TYPE": 0,
    "CLASSIFICATION_TYPE": "U",
    "NORAD_CAT_ID": 48571,
    "ELEMENT_SET_NO": 999,
    "REV_AT_EPOCH": 24721,
    "BSTAR": 0.0,
    "MEAN_MOTION_DOT": -3.52e-06,
    "MEAN_MOTION_DDOT": 0.0,
    "TLE_LINE1": "1 48571U 21041U   25315.26327540 -.00000352  00000+0 -47380-5 0  9996",
    "TLE_LINE2": "2 48571  53.0546 313.2553 0001368  86.2325 273.8820 15.06395865247210",
    "COMMENT": "Grouped by shell and plane from TLE"
  },
  {
    "OBJECT_NAME": "STARLINK-2222",
    "OBJECT_ID": "21041V",
    "EPOCH": "2025-11-11T06:13:49.115136",
    "MEAN_MOTION": 15.06394552,
    "ECCENTRICITY": 0.0001463,
    "INCLINATION": 53.0551,
    "RA_OF_ASC_NODE": 313.2688,
    "ARG_OF_PERICENTER": 97.4452,
    "MEAN_ANOMALY": 262.6703,
    "EPHEMERIS_TYPE": 0,
    "CLASSIFICATION_TYPE": "U",
    "NORAD_CAT_ID": 48572,
    "ELEMENT_SET_NO": 999,
    "REV_AT_EPOCH": 24721,
    "BSTAR": 0.00012343,
    "MEAN_MOTION_DOT": 1.557e-05,
    "MEAN_MOTION_DDOT": 0.0,
    "TLE_LINE1": "1 48572U 21041V   25315.25959624  .00001557  00000+0  12343-3 0  9995",
    "TLE_LINE2": "2 48572  53.0551 313.2688 0001463  97.4452 262.6703 15.06394552247215",
    "COMMENT": "Grouped by shell and plane from TLE"
  }
]